FLOCK 2K-19             
1 42886U 17042BP  21119.03741431  .00011459  00000-0  24220-3 0  9992
2 42886  96.8553 335.2875 0008281 241.1789 118.8630 15.45269878212771
FLOCK 2K-18             
1 42887U 17042BQ  21119.09891930  .00011303  00000-0  23884-3 0  9992
2 42887  96.8555 335.3563 0008329 238.9779 121.0654 15.45281210212782
FLOCK 2K-15             
1 42890U 17042BT  21118.90151448  .00006587  00000-0  13992-3 0  9995
2 42890  96.8556 335.3008 0008390 239.0710 120.9716 15.45287926212750
FLOCK 2K-12             
1 42893U 17042BW  21118.83013874  .00015928  00000-0  33553-3 0  9994
2 42893  96.8549 335.1563 0008297 239.4414 120.6018 15.45295744212748
FLOCK 2K-10             
1 42895U 17042BY  21118.89783163  .00011153  00000-0  23557-3 0  9996
2 42895  96.8550 335.1096 0008459 237.4025 122.6409 15.45294444212752
FLOCK 2K-9              
1 42896U 17042BZ  21118.15820532  .00012592  00000-0  25533-3 0  9992
2 42896  96.8514 335.7260 0008041 233.5470 126.5040 15.46467601212910
FLOCK 2K-6              
1 42897U 17042CA  21118.54129709  .00011625  00000-0  24497-3 0  9998
2 42897  96.8548 334.7160 0006717 256.1765 103.8738 15.45367491212694
SKYSAT-C11              
1 42987U 17068A   21118.52662664  .00002892  00000-0  75418-4 0  9992
2 42987  97.2538 234.9817 0009323   4.4114 355.7213 15.39621713194537
SKYSAT-C10              
1 42988U 17068B   21118.58126116  .00003052  00000-0  79377-4 0  9993
2 42988  97.2578 234.9850 0004368  66.6849 293.4857 15.39687053194562
SKYSAT-C9               
1 42989U 17068C   21118.56789327  .00003070  00000-0  80074-4 0  9997
2 42989  97.2534 234.4147 0001174 138.8984 221.2350 15.39600479194758
SKYSAT-C8               
1 42990U 17068D   21118.62594664  .00003011  00000-0  78642-4 0  9997
2 42990  97.2581 235.4140 0002267  58.0050 302.1416 15.39570489194598
SKYSAT-C7               
1 42991U 17068E   21118.61638830  .00003006  00000-0  78631-4 0  9993
2 42991  97.2587 235.4197 0002075 103.9939 256.1538 15.39521194194592
SKYSAT-C6               
1 42992U 17068F   21119.12673399  .00002984  00000-0  78092-4 0  9995
2 42992  97.2604 236.1984 0000543 185.9186 174.2054 15.39514438194683
FLOCK 3M-4              
1 42997U 17068L   21118.56620188  .00005363  00000-0  23033-3 0  9993
2 42997  97.4342 229.7799 0016432  88.9292 271.3827 15.22988969193665
FLOCK 3M-2              
1 42998U 17068M   21118.39662238  .00002157  00000-0  94578-4 0  9998
2 42998  97.4186 227.7265 0015152  85.7455 274.5513 15.22971923193649
FLOCK 3P'-3             
1 43119U 18004J   21118.45511535  .00001762  00000-0  75281-4 0  9996
2 43119  97.4147 192.3742 0010677  35.5348 324.6599 15.24143617182967
FLOCK 3P'-2             
1 43120U 18004K   21118.15771393  .00001554  00000-0  67347-4 0  9998
2 43120  97.4155 191.8979 0010753  37.1017 323.0961 15.23836860182908
FLOCK 3P'-4             
1 43122U 18004M   21118.48242789  .00001496  00000-0  64887-4 0  9999
2 43122  97.4164 192.3167 0010587  37.9538 322.2443 15.23863114182959
FLOCK 3R-9              
1 43723U 18096E   21119.20511094  .00011410  00000-0  37749-3 0  9999
2 43723  97.3889 198.5703 0017348  84.7952 296.7583 15.31354184134706
FLOCK 3R-12             
1 43724U 18096F   21119.12388328  .00002913  00000-0  99015-4 0  9996
2 43724  97.3899 198.5393 0017647  86.1993 274.1266 15.31133712134694
FLOCK 3R-11             
1 43725U 18096G   21118.52274109  .00002697  00000-0  91924-4 0  9991
2 43725  97.3898 197.9456 0017704  88.0457 272.2812 15.31119598134600
FLOCK 3R-8              
1 43727U 18096J   21119.02610526  .00006170  00000-0  20608-3 0  9996
2 43727  97.3908 198.6164 0017885  87.6292 272.6996 15.31244143134680
FLOCK 3R-4              
1 43733U 18096Q   21119.19319884  .00003496  00000-0  11812-3 0  9999
2 43733  97.3929 198.8869 0020985  88.8782 324.7568 15.31131712134711
FLOCK 3R-3              
1 43734U 18096R   21119.22767671  .00009457  00000-0  31333-3 0  9998
2 43734  97.3906 198.9961 0020732  87.4874 339.0550 15.31295452134721
FLOCK 3R-10             
1 43740U 18096X   21119.13000194  .00005803  00000-0  19413-3 0  9991
2 43740  97.3896 198.5220 0017388  85.2858 275.0369 15.31224547134725
FLOCK 3R-6              
1 43741U 18096Y   21119.11609631  .00003917  00000-0  13219-3 0  9993
2 43741  97.3913 198.6256 0018132  86.9347 337.4740 15.31141695134701
FLOCK 3R-7              
1 43742U 18096Z   21119.17343209  .00006124  00000-0  20504-3 0  9994
2 43742  97.3913 198.6913 0018006  84.3033 331.6168 15.31165868134704
FLOCK 3R-1              
1 43747U 18096AE  21118.49003122  .00006214  00000-0  20669-3 0  9992
2 43747  97.3919 198.2721 0020895  91.2824 269.0811 15.31316261134627
FLOCK 3S-1              
1 43769U 18099M   21118.80879952  .00000987  00000-0  94699-4 0  9992
2 43769  97.6651 189.6229 0013322 215.6849 144.3482 14.95250820131038
SKYSAT-C12              
1 43797U 18099AR  21118.86960654  .00002729  00000-0  72858-4 0  9998
2 43797  97.1755 190.0100 0001020 130.4120 229.7215 15.38953868133686
SKYSAT-C13              
1 43802U 18099AW  21118.80628006  .00001982  00000-0  62732-4 0  9991
2 43802  97.2072 189.3519 0003880 356.9375   3.1844 15.33909881133340
FLOCK 3K-4              
1 43893U 18111T   21118.45636357  .00002341  00000-0  88454-4 0  9994
2 43893  97.2393  15.3461 0023050 109.9733 250.3992 15.27723252130082
FLOCK 3K-1              
1 43894U 18111U   21118.51444984  .00006182  00000-0  22872-3 0  9993
2 43894  97.2385  15.3567 0023210 109.4878 250.8872 15.27779877130091
FLOCK 3K-2              
1 43895U 18111V   21118.50736013  .00005193  00000-0  19270-3 0  9999
2 43895  97.2383  15.3895 0023649 109.1700 251.2102 15.27752213130097
FLOCK 3K-6              
1 43896U 18111W   21118.50008732  .00001914  00000-0  72862-4 0  9994
2 43896  97.2396  15.4210 0021974 106.1231 254.2430 15.27717882130099
FLOCK 3K-5              
1 43899U 18111Z   21118.55842498  .00004488  00000-0  16699-3 0  9991
2 43899  97.2394  15.5111 0022381 104.8629 255.5092 15.27763110130105
FLOCK 3K-7              
1 43902U 18111AC  21118.48558692  .00002246  00000-0  84991-4 0  9999
2 43902  97.2394  15.4256 0022454 105.7872 254.5846 15.27727167130096
FLOCK 3K-11             
1 43904U 18111AE  21119.19171248  .00003526  00000-0  13183-3 0  9994
2 43904  97.2353  16.1701 0022089 101.1970 259.1377 15.27757398130201
FLOCK 3K-10             
1 43905U 18111AF  21118.46398290  .00005249  00000-0  19494-3 0  9997
2 43905  97.2396  15.4794 0021498 104.0914 256.2717 15.27761709130090
FLOCK 3K-9              
1 43906U 18111AG  21118.93685756  .00003189  00000-0  11963-3 0  9990
2 43906  97.2385  15.8695 0022108 103.1816 257.1892 15.27717984130161
FLOCK 4A-2              
1 44080U 19018C   21119.14683540  .00002349  00000-0  97907-4 0  9994
2 44080  97.3648 180.9830 0013829 129.7661 230.4797 15.24615642115464
FLOCK 4A-3              
1 44081U 19018D   21119.12060057  .00003305  00000-0  13678-3 0  9990
2 44081  97.3647 180.9978 0013699 131.0987 229.1436 15.24562249115468
FLOCK 4A-17             
1 44088U 19018L   21119.11319835  .00004894  00000-0  20154-3 0  9998
2 44088  97.3659 181.2548 0014176 136.2949 223.9413 15.24486115115465
FLOCK 4A-19             
1 44090U 19018N   21119.14339942  .00003994  00000-0  16420-3 0  9996
2 44090  97.3657 181.3572 0014088 137.0394 223.1946 15.24656171115474
FLOCK 4A-7              
1 44093U 19018R   21119.13499954  .00001888  00000-0  79453-4 0  9994
2 44093  97.3671 181.4635 0011883 138.8285 221.3851 15.24548592115474
FLOCK 4A-6              
1 44094U 19018S   21119.12757033  .00003370  00000-0  13970-3 0  9998
2 44094  97.3665 181.4308 0011681 140.2944 219.9151 15.24513482115487
FLOCK 4A-5              
1 44095U 19018T   21119.10466080  .00003598  00000-0  14922-3 0  9996
2 44095  97.3660 181.4638 0012039 140.6607 219.5507 15.24452459115473
FLOCK 4A-11             
1 44096U 19018U   21119.09966104  .00002629  00000-0  10970-3 0  9990
2 44096  97.3668 181.4846 0011939 142.6877 217.5192 15.24487216115479
FLOCK 4A-9              
1 44098U 19018W   21119.16189707  .00003724  00000-0  15386-3 0  9999
2 44098  97.3665 181.5551 0012188 144.8958 215.3085 15.24550641115484
FLOCK 4A-16             
1 44099U 19018X   21119.15470815  .00001815  00000-0  76501-4 0  9998
2 44099  97.3664 181.5146 0012202 144.6897 215.5151 15.24546803115482
FLOCK 4P-10             
1 44808U 19081E   21118.81045478  .00001656  00000-0  77284-4 0  9993
2 44808  97.4526 183.0937 0012000 232.8976 127.1164 15.21193007 78781
FLOCK 4P-11             
1 44809U 19081F   21118.86229688  .00003044  00000-0  13904-3 0  9997
2 44809  97.4516 183.1616 0011945 232.4074 127.6077 15.21288465 78790
FLOCK 4P-12             
1 44810U 19081G   21119.11902974  .00001775  00000-0  82331-4 0  9994
2 44810  97.4524 183.4459 0011738 231.4234 128.5951 15.21314854 78834
FLOCK 4P-4              
1 44811U 19081H   21119.16243137  .00001824  00000-0  84671-4 0  9993
2 44811  97.4551 183.6645 0011026 219.6235 140.4196 15.21264909 78843
FLOCK 4P-3              
1 44812U 19081J   21119.15638191  .00003191  00000-0  14564-3 0  9993
2 44812  97.4550 183.6710 0010938 219.5073 140.5366 15.21296563 78847
FLOCK 4P-2              
1 44813U 19081K   21118.12311740  .00001900  00000-0  88236-4 0  9992
2 44813  97.4530 182.5352 0010634 224.6962 135.3417 15.21200650 78686
FLOCK 4P-1              
1 44814U 19081L   21118.44554087  .00004919  00000-0  22317-3 0  9991
2 44814  97.4530 182.8676 0010612 223.3254 136.7148 15.21234826 78739
FLOCK 4P-7              
1 44816U 19081N   21118.88637422  .00003926  00000-0  17833-3 0  9990
2 44816  97.4525 183.3422 0010143 222.3043 137.7412 15.21321620 78806
FLOCK 4P-5              
1 44818U 19081Q   21119.13273555  .00001740  00000-0  81017-4 0  9992
2 44818  97.4530 183.6295 0009642 223.2121 136.8359 15.21237679 78848
SKYSAT-C14              
1 45788U 20038BL  21118.48256430  .00008708  00000-0  12434-3 0  9990
2 45788  52.9986 186.6480 0004947 274.7358  85.3087 15.57158146 49935
